JILIN-1 GAOFEN 3A       
1 44312U 19032C   25185.64717627  .00007224  00000+0  31103-3 0  9995
2 44312  44.9820  95.7651 0010727 120.2154 239.9790 15.23203913334769
XIAOXIANG 4             
1 44313U 19032D   25185.63948164  .00058613  00000+0  79972-3 0  9991
2 44313  44.9903  24.9236 0015639 208.1603 151.8447 15.56585514335642
WT 1A                   
1 44315U 19032F   25185.67198160  .00022805  00000+0  57309-3 0  9994
2 44315  44.9862  44.2142 0015533 179.8069 180.2827 15.39517738335374
WT 1B                   
1 44316U 19032G   25185.34196724  .00007256  00000+0  36378-3 0  9999
2 44316  44.9749 146.2337 0014519  66.8321 293.4086 15.17891986334062
PROX-1                  
1 44339U 19036A   25185.49412954  .00007875  00000+0  97513-3 0  9995
2 44339  23.9969 258.0914 0007326   3.3562 356.6984 14.80357133321719
NPSAT1                  
1 44340U 19036B   25185.54141475  .00004263  00000+0  66092-3 0  9996
2 44340  24.0002 313.5438 0008106 257.6179 102.3408 14.69730189321208
FORMOSAT 7-3            
1 44343U 19036E   25184.98678919  .00003692  00000+0  22553-3 0  9993
2 44343  24.0001  48.0324 0001135  94.4200 265.6433 15.05856843330625
FORMOSAT 7-1            
1 44349U 19036L   25185.45560451  .00003255  00000+0  19682-3 0  9997
2 44349  23.9971 220.8885 0001719 187.5126 172.5351 15.05741801332462
FORMOSAT 7-4            
1 44350U 19036M   25185.60989294  .00003535  00000+0  21599-3 0  9997
2 44350  23.9992 281.9208 0001244  97.2029 262.8615 15.05698271331902
FORMOSAT 7-2            
1 44351U 19036N   25185.63172325  .00003888  00000+0  23960-3 0  9995
2 44351  23.9997 336.0805 0000820 120.9538 239.1046 15.05729312331479
FORMOSAT 7-6            
1 44353U 19036Q   25185.30066766  .00003506  00000+0  21372-3 0  9994
2 44353  23.9968 159.1728 0000807 214.6986 145.3465 15.05753453329608
FORMOSAT 7-5            
1 44358U 19036V   25185.14528138  .00003667  00000+0  22482-3 0  9998
2 44358  23.9991 100.0123 0000740  73.9047 286.1537 15.05714306330108
METEOR-M2 2             
1 44387U 19038A   25185.64862707  .00000050  00000+0  41579-4 0  9992
2 44387  98.8753 163.5778 0000678   6.3720 353.7467 14.24214012311825
SONATE                  
1 44400U 19038Q   25185.04804581  .04763960  26969-5  62783-3 0  9995
2 44400  97.6638 215.9601 0011195 235.7841 124.2395 16.35453268333507
COSMOS 2535             
1 44421U 19039A   25185.66978016  .00000771  00000+0  83835-4 0  9996
2 44421  97.6172 221.5425 0007121 293.8230  66.2242 14.90805769324749
QIANSHENG 1-01          
1 44486U 19052A   25185.65315944  .00252061  00000+0  10737-2 0  9996
2 44486  97.3529 267.0697 0003313 265.5213  94.5679 15.84579932325793
GLOBAL-4                
1 44499U 19054E   25185.61877256  .00014356  00000+0  36433-3 0  9992
2 44499  45.0123  39.6566 0006544 244.6029 115.4182 15.39615513326426
ZY-1 02D                
1 44528U 19059A   25185.65997520  .00000077  00000+0  41473-4 0  9997
2 44528  98.3667 253.5344 0002799  87.4834 272.6672 14.35445546304483
TAURUS-1 (JINNIUZUO 1)  
1 44530U 19059C   25185.63923514  .00004181  00000+0  77084-3 0  9996
2 44530  98.6090 326.2287 0008013 322.0623  38.0013 14.66073418307612
ZHUHAI-1 03A            
1 44534U 19060A   25185.60390375  .00157719  00000+0  72168-3 0  9996
2 44534  97.5221 334.6024 0002840  97.4750 262.6841 15.83294282323243
ZHUHAI-1 03B            
1 44536U 19060C   25185.63624346  .00013800  00000+0  42698-3 0  9996
2 44536  97.5196 326.4437 0014492 131.9136 228.3345 15.33501423322735
ZHUHAI-1 03C            
1 44537U 19060D   25185.61915761  .00022836  00000+0  51631-3 0  9995
2 44537  97.5458 329.6082 0019764 102.1831 258.1631 15.42965608322960
ZHUHAI-1 03D            
1 44538U 19060E   25185.58640661  .00013230  00000+0  44625-3 0  9999
2 44538  97.5026 321.1963 0013420 114.0118 246.2529 15.30752781322608
ZHUHAI-1 03E            
1 44539U 19060F   25185.64874113  .00010949  00000+0  40716-3 0  9999
2 44539  97.5223 323.2082 0012063 163.1926 196.9715 15.27627744322487
ATLAS 5 CENTAUR DEB     
1 44694U 18079BG  25181.06901819 -.00000135  00000+0  00000+0 0  9991
2 44694  13.2102  67.8508 4748073 243.0046  61.1827  1.77431836 40294
GAOFEN-7                
1 44703U 19072A   25185.66529426  .00004291  00000+0  19389-3 0  9996
2 44703  97.2903 254.1494 0011621 143.1543 217.0494 15.21409439314802
STARLINK-1010           
1 44716U 19074D   25185.36526652  .00108163  00000+0  17618-2 0  9992
2 44716  53.0534 204.3424 0009630 339.4924  20.5697 15.51775453311541
JILIN-1 GAOFEN 2A       
1 44777U 19075A   25185.64665238  .00008316  00000+0  30325-3 0  9995
2 44777  97.5314 258.6189 0007137 231.9243 128.1353 15.28405365311615
NINGXIA-1 1             
1 44779U 19076A   25185.64695459 -.00000119  00000+0  67028-5 0  9992
2 44779  45.0075 292.8430 0011235 307.9106  52.0712 14.01926954289085
NINGXIA-1 5             
1 44783U 19076E   25185.65989489 -.00000127  00000+0  20488-5 0  9995
2 44783  45.0086 292.1324 0011312 296.3212  63.6460 14.01951085289094
KL-ALPHA A              
1 44785U 19077A   25185.57296862  .00000070  00000+0  82290-4 0  9999
2 44785  88.9094 260.9511 0012562  51.7259 308.5023 13.55998924278628
CARTOSAT-3              
1 44804U 19081A   25185.65736825  .00003560  00000+0  17173-3 0  9997
2 44804  97.4799 247.0295 0011998 285.2922  74.6986 15.19285449310657
JILIN-1 GAOFEN 2B       
1 44836U 19086A   25185.64137009  .00004589  00000+0  24622-3 0  9994
2 44836  97.5302 255.3168 0017439  89.3469 270.9761 15.15324398307762
DUCHIFAT-3              
1 44854U 19089C   25185.39988900  .00039179  00000+0  71815-3 0  9992
2 44854  36.9410 197.1608 0004711 182.0944 177.9794 15.48339940306866
ANGELS                  
1 44876U 19092D   25185.51636183  .00023189  00000+0  48517-3 0  9994
2 44876  97.4550  24.5943 0007319  47.7411 312.4458 15.45442890307999
TIANQIN 1 (CAS-6)       
1 44879U 19093A   25185.65912515  .00002511  00000+0  24832-3 0  9999
2 44879  97.8069 267.1843 0013161 126.1686 234.0753 14.92746489300153
ETRSS-1                 
1 44880U 19093B   25185.66205091  .00002337  00000+0  23059-3 0  9992
2 44880  97.8077 267.4476 0013328 127.2534 232.9903 14.92904443300158
TIANYAN 01              
1 44881U 19093C   25185.68267319  .00000703  00000+0  87228-4 0  9990
2 44881  97.7919 260.8076 0014657 144.5298 215.6894 14.85642055299807
TIANYAN 02              
1 44882U 19093D   25185.63562565  .00005086  00000+0  42103-3 0  9998
2 44882  97.8182 273.3067 0011888 121.2693 238.9695 14.99281610300434
CBERS 4A                
1 44883U 19093E   25185.55331269  .00000808  00000+0  10927-3 0  9991
2 44883  97.7923 258.1218 0001957 167.8732 192.2528 14.81605662299603
WEILAI 1R               
1 44884U 19093F   25185.58310345  .00004486  00000+0  40030-3 0  9991
2 44884  97.8094 270.5434 0011868 121.8875 238.3502 14.96419174300369
FLORIPASAT-1            
1 44885U 19093G   25185.65388360  .00005037  00000+0  42341-3 0  9992
2 44885  97.8157 273.3072 0012553 119.7869 240.4603 14.98683173300506
SHUNTIAN                
1 44886U 19093H   25185.65649396  .00002818  00000+0  27887-3 0  9994
2 44886  97.8208 270.8836 0013569 135.9377 224.2926 14.92606379300297
2019-093L               
1 44889U 19093L   25185.59889024  .00002077  00000+0  21148-3 0  9995
2 44889  97.7882 263.0112 0013878 123.7636 236.4907 14.91750469299913
ELEKTRO-L 3             
1 44903U 19095A   25185.50907278 -.00000083  00000+0  00000+0 0  9993
2 44903   0.0959 138.2972 0000738   1.3164  42.4370  1.00270022 20220
GONETS-M 14             
1 44905U 19096A   25185.54178036  .00000032  00000+0  16039-3 0  9998
2 44905  82.5246 300.1464 0013960 187.2888 172.7991 12.42894394250504
GONETS-M 15             
1 44906U 19096B   25185.56693612  .00000031  00000+0  15189-3 0  9997
2 44906  82.5266 300.5299 0015418 209.7632 150.2572 12.42896655250467
GONETS-M 16             
1 44907U 19096C   25185.51429357  .00000028  00000+0  12887-3 0  9994
2 44907  82.5211 299.6729 0010414 251.8310 108.1636 12.42854927250443
RS-44 & BREEZE-KM R/B   
1 44909U 19096E   25185.57160553  .00000015  00000+0  19158-4 0  9997
2 44909  82.5196 210.6739 0216437 236.9831 121.0310 12.79741568257880
JILIN-1 KUANFU 01       
1 45016U 20003A   25185.63009225  .00003348  00000+0  20503-3 0  9999
2 45016  97.5404 260.8420 0003072 164.6399 195.4925 15.10875336302873
XINGYUN-2 01            
1 45602U 20028A   25185.60814244  .00002342  00000+0  14966-3 0  9998
2 45602  97.4651 180.9331 0008514 329.0212  31.0514 15.09572628282363
XINGYUN-2 02            
1 45603U 20028B   25185.60842510  .00001673  00000+0  10829-3 0  9996
2 45603  97.5081 193.2012 0012303  33.9021 326.2992 15.09459697282364
HAIYANG-1D              
1 45721U 20036A   25185.61042027  .00000111  00000+0  55588-4 0  9990
2 45721  98.6303 130.5082 0002584  69.7662 290.3800 14.34118831265159
M2 PATHFINDER           
1 45727U 20037E   25185.45037466  .00002388  00000+0  18529-3 0  9991
2 45727  97.8163   8.2813 0011876 242.8067 117.1947 15.02314214273246
GAOFEN DUOMO (GFDM)     
1 45856U 20042A   25185.63224496  .00000642  00000+0  98479-4 0  9995
2 45856  97.8234 252.1649 0013621 116.3040 243.9571 14.76779692269714
ZINYUAN-3               
1 45939U 20051A   25185.64515108  .00004141  00000+0  18832-3 0  9993
2 45939  97.3259 258.6605 0004376 150.4147 209.7337 15.21261100274510
TYVAK-0172              
1 46267U 20059C   25185.62066961  .00021907  00000+0  68830-3 0  9994
2 46267  97.7742  46.2831 0002514  84.0866 276.0662 15.33014257264799
ION-MK01                
1 46274U 20061C   25185.18275071  .00023942  00000+0  39508-3 0  9991
2 46274  97.2414 253.0841 0003611 122.5804 237.5798 15.52266702268797
UPMSAT-2                
1 46276U 20061E   25185.15707831  .00073825  00000+0  56811-3 0  9995
2 46276  97.2420 260.4190 0002212 150.0468 210.0922 15.71787086269322
